CCSDS_OMM_VERS = 2.0
CREATION_DATE  = 
ORIGINATOR     = 

OBJECT_NAME    = STARLINK-36976
OBJECT_ID      = 2026-041AC
CENTER_NAME    = EARTH
REF_FRAME      = TEME
TIME_SYSTEM    = UTC
MEAN_ELEMENT_THEORY = SGP/SGP4

EPOCH          = 2026-03-21T03:54:56.240352
MEAN_MOTION    = 15.75392818
ECCENTRICITY   = .00008458
INCLINATION    = 53.1595
RA_OF_ASC_NODE = 4.5919
ARG_OF_PERICENTER = 90.5706
MEAN_ANOMALY   = 269.5411

EPHEMERIS_TYPE = 0
CLASSIFICATION_TYPE = U
NORAD_CAT_ID   = 68066
ELEMENT_SET_NO = 999
REV_AT_EPOCH   = 303
BSTAR          = .22870995E-2
MEAN_MOTION_DOT = .368113E-2
MEAN_MOTION_DDOT = 0

CCSDS_OMM_VERS = 2.0
CREATION_DATE  = 
ORIGINATOR     = 

OBJECT_NAME    = STARLINK-36929
OBJECT_ID      = 2026-041AD
CENTER_NAME    = EARTH
REF_FRAME      = TEME
TIME_SYSTEM    = UTC
MEAN_ELEMENT_THEORY = SGP/SGP4

EPOCH          = 2026-03-21T04:00:59.022720
MEAN_MOTION    = 15.75329843
ECCENTRICITY   = .00005917
INCLINATION    = 53.1601
RA_OF_ASC_NODE = 4.6199
ARG_OF_PERICENTER = 68.0466
MEAN_ANOMALY   = 292.0618

EPHEMERIS_TYPE = 0
CLASSIFICATION_TYPE = U
NORAD_CAT_ID   = 68067
ELEMENT_SET_NO = 999
REV_AT_EPOCH   = 303
BSTAR          = .1088623E-2
MEAN_MOTION_DOT = .170309E-2
MEAN_MOTION_DDOT = 0

CCSDS_OMM_VERS = 2.0
CREATION_DATE  = 
ORIGINATOR     = 

OBJECT_NAME    = STARLINK-36990
OBJECT_ID      = 2026-041AE
CENTER_NAME    = EARTH
REF_FRAME      = TEME
TIME_SYSTEM    = UTC
MEAN_ELEMENT_THEORY = SGP/SGP4

EPOCH          = 2026-03-21T05:01:33.017952
MEAN_MOTION    = 15.81021193
ECCENTRICITY   = .000083
INCLINATION    = 53.1595
RA_OF_ASC_NODE = 4.1612
ARG_OF_PERICENTER = 68.3718
MEAN_ANOMALY   = 291.7393

EPHEMERIS_TYPE = 0
CLASSIFICATION_TYPE = U
NORAD_CAT_ID   = 68068
ELEMENT_SET_NO = 999
REV_AT_EPOCH   = 304
BSTAR          = .1388553E-2
MEAN_MOTION_DOT = .28452E-2
MEAN_MOTION_DDOT = 0

CCSDS_OMM_VERS = 2.0
CREATION_DATE  = 
ORIGINATOR     = 

OBJECT_NAME    = STARLINK-36766
OBJECT_ID      = 2026-042A
CENTER_NAME    = EARTH
REF_FRAME      = TEME
TIME_SYSTEM    = UTC
MEAN_ELEMENT_THEORY = SGP/SGP4

EPOCH          = 2026-03-21T04:51:06.097824
MEAN_MOTION    = 15.81063664
ECCENTRICITY   = .0001492
INCLINATION    = 53.1575
RA_OF_ASC_NODE = 137.0830
ARG_OF_PERICENTER = 63.2998
MEAN_ANOMALY   = 296.8178

EPHEMERIS_TYPE = 0
CLASSIFICATION_TYPE = U
NORAD_CAT_ID   = 68069
ELEMENT_SET_NO = 999
REV_AT_EPOCH   = 390
BSTAR          = .19868367E-2
MEAN_MOTION_DOT = .414476E-2
MEAN_MOTION_DDOT = 0

CCSDS_OMM_VERS = 2.0
CREATION_DATE  = 
ORIGINATOR     = 

OBJECT_NAME    = STARLINK-36823
OBJECT_ID      = 2026-042B
CENTER_NAME    = EARTH
REF_FRAME      = TEME
TIME_SYSTEM    = UTC
MEAN_ELEMENT_THEORY = SGP/SGP4

EPOCH          = 2026-03-21T04:50:01.813632
MEAN_MOTION    = 15.81025249
ECCENTRICITY   = .00019723
INCLINATION    = 53.1572
RA_OF_ASC_NODE = 137.0774
ARG_OF_PERICENTER = 48.5631
MEAN_ANOMALY   = 311.5561

EPHEMERIS_TYPE = 0
CLASSIFICATION_TYPE = U
NORAD_CAT_ID   = 68070
ELEMENT_SET_NO = 999
REV_AT_EPOCH   = 390
BSTAR          = .16774864E-2
MEAN_MOTION_DOT = .346432E-2
MEAN_MOTION_DDOT = 0

CCSDS_OMM_VERS = 2.0
CREATION_DATE  = 
ORIGINATOR     = 

OBJECT_NAME    = STARLINK-36970
OBJECT_ID      = 2026-042C
CENTER_NAME    = EARTH
REF_FRAME      = TEME
TIME_SYSTEM    = UTC
MEAN_ELEMENT_THEORY = SGP/SGP4

EPOCH          = 2026-03-21T04:47:52.008864
MEAN_MOTION    = 15.81020114
ECCENTRICITY   = .00018297
INCLINATION    = 53.1571
RA_OF_ASC_NODE = 137.0670
ARG_OF_PERICENTER = 44.9460
MEAN_ANOMALY   = 315.1710

EPHEMERIS_TYPE = 0
CLASSIFICATION_TYPE = U
NORAD_CAT_ID   = 68071
ELEMENT_SET_NO = 999
REV_AT_EPOCH   = 390
BSTAR          = .16456632E-2
MEAN_MOTION_DOT = .33949E-2
MEAN_MOTION_DDOT = 0

CCSDS_OMM_VERS = 2.0
CREATION_DATE  = 
ORIGINATOR     = 

OBJECT_NAME    = STARLINK-36972
OBJECT_ID      = 2026-042D
CENTER_NAME    = EARTH
REF_FRAME      = TEME
TIME_SYSTEM    = UTC
MEAN_ELEMENT_THEORY = SGP/SGP4

EPOCH          = 2026-03-21T04:48:56.891808
MEAN_MOTION    = 15.81032858
ECCENTRICITY   = .00019009
INCLINATION    = 53.1574
RA_OF_ASC_NODE = 137.0724
ARG_OF_PERICENTER = 42.5940
MEAN_ANOMALY   = 317.5230

EPHEMERIS_TYPE = 0
CLASSIFICATION_TYPE = U
NORAD_CAT_ID   = 68072
ELEMENT_SET_NO = 999
REV_AT_EPOCH   = 390
BSTAR          = .18177493E-2
MEAN_MOTION_DOT = .376935E-2
MEAN_MOTION_DDOT = 0

CCSDS_OMM_VERS = 2.0
CREATION_DATE  = 
ORIGINATOR     = 

OBJECT_NAME    = STARLINK-37074
OBJECT_ID      = 2026-042E
CENTER_NAME    = EARTH
REF_FRAME      = TEME
TIME_SYSTEM    = UTC
MEAN_ELEMENT_THEORY = SGP/SGP4

EPOCH          = 2026-03-21T04:46:46.734528
MEAN_MOTION    = 15.81009656
ECCENTRICITY   = .00013741
INCLINATION    = 53.1573
RA_OF_ASC_NODE = 137.0623
ARG_OF_PERICENTER = 290.6694
MEAN_ANOMALY   = 69.4181

EPHEMERIS_TYPE = 0
CLASSIFICATION_TYPE = U
NORAD_CAT_ID   = 68073
ELEMENT_SET_NO = 999
REV_AT_EPOCH   = 390
BSTAR          = .20818001E-2
MEAN_MOTION_DOT = .434254E-2
MEAN_MOTION_DDOT = 0

CCSDS_OMM_VERS = 2.0
CREATION_DATE  = 
ORIGINATOR     = 

OBJECT_NAME    = STARLINK-37045
OBJECT_ID      = 2026-042F
CENTER_NAME    = EARTH
REF_FRAME      = TEME
TIME_SYSTEM    = UTC
MEAN_ELEMENT_THEORY = SGP/SGP4

EPOCH          = 2026-03-21T02:00:01.000224
MEAN_MOTION    = 15.77468641
ECCENTRICITY   = .00008732
INCLINATION    = 53.1587
RA_OF_ASC_NODE = 137.6426
ARG_OF_PERICENTER = 75.3626
MEAN_ANOMALY   = 344.4768

EPHEMERIS_TYPE = 0
CLASSIFICATION_TYPE = U
NORAD_CAT_ID   = 68074
ELEMENT_SET_NO = 999
REV_AT_EPOCH   = 388
BSTAR          = -.13010675E-1
MEAN_MOTION_DOT = -.1914824E-1
MEAN_MOTION_DDOT = 0

CCSDS_OMM_VERS = 2.0
CREATION_DATE  = 
ORIGINATOR     = 

OBJECT_NAME    = STARLINK-37026
OBJECT_ID      = 2026-042G
CENTER_NAME    = EARTH
REF_FRAME      = TEME
TIME_SYSTEM    = UTC
MEAN_ELEMENT_THEORY = SGP/SGP4

EPOCH          = 2026-03-21T04:00:00.999936
MEAN_MOTION    = 15.75186840
ECCENTRICITY   = .00013929
INCLINATION    = 53.1581
RA_OF_ASC_NODE = 137.3337
ARG_OF_PERICENTER = 106.1077
MEAN_ANOMALY   = 15.3815

EPHEMERIS_TYPE = 0
CLASSIFICATION_TYPE = U
NORAD_CAT_ID   = 68075
ELEMENT_SET_NO = 999
REV_AT_EPOCH   = 389
BSTAR          = .10820666E-2
MEAN_MOTION_DOT = .168182E-2
MEAN_MOTION_DDOT = 0

CCSDS_OMM_VERS = 2.0
CREATION_DATE  = 
ORIGINATOR     = 

OBJECT_NAME    = STARLINK-37023
OBJECT_ID      = 2026-042H
CENTER_NAME    = EARTH
REF_FRAME      = TEME
TIME_SYSTEM    = UTC
MEAN_ELEMENT_THEORY = SGP/SGP4

EPOCH          = 2026-03-21T02:00:01.000224
MEAN_MOTION    = 15.75191728
ECCENTRICITY   = .00008912
INCLINATION    = 53.1588
RA_OF_ASC_NODE = 137.6868
ARG_OF_PERICENTER = 79.2544
MEAN_ANOMALY   = 318.8487

EPHEMERIS_TYPE = 0
CLASSIFICATION_TYPE = U
NORAD_CAT_ID   = 68076
ELEMENT_SET_NO = 999
REV_AT_EPOCH   = 388
BSTAR          = .6879484E-3
MEAN_MOTION_DOT = .105924E-2
MEAN_MOTION_DDOT = 0

CCSDS_OMM_VERS = 2.0
CREATION_DATE  = 
ORIGINATOR     = 

OBJECT_NAME    = STARLINK-37036
OBJECT_ID      = 2026-042J
CENTER_NAME    = EARTH
REF_FRAME      = TEME
TIME_SYSTEM    = UTC
MEAN_ELEMENT_THEORY = SGP/SGP4

EPOCH          = 2026-03-21T04:00:00.999936
MEAN_MOTION    = 15.75221753
ECCENTRICITY   = .00016066
INCLINATION    = 53.1584
RA_OF_ASC_NODE = 137.2763
ARG_OF_PERICENTER = 87.6532
MEAN_ANOMALY   = 61.4112

EPHEMERIS_TYPE = 0
CLASSIFICATION_TYPE = U
NORAD_CAT_ID   = 68077
ELEMENT_SET_NO = 999
REV_AT_EPOCH   = 389
BSTAR          = .46253507E-3
MEAN_MOTION_DOT = .70804E-3
MEAN_MOTION_DDOT = 0

