STARLINK-36976          
1 68066U 26041AC  26080.16315093  .00368113  00000+0  22871-2 0  9996
2 68066  53.1595   4.5919 0000845  90.5706 269.5411 15.75392818  3031
STARLINK-36929          
1 68067U 26041AD  26080.16734980  .00170309  00000+0  10886-2 0  9998
2 68067  53.1601   4.6199 0000591  68.0466 292.0618 15.75329843  3030
STARLINK-36990          
1 68068U 26041AE  26080.20940993  .00284520  00000+0  13886-2 0  9991
2 68068  53.1595   4.1612 0000830  68.3718 291.7393 15.81021193  3048
STARLINK-36766          
1 68069U 26042A   26080.20215391  .00414476  00000+0  19868-2 0  9991
2 68069  53.1575 137.0830 0001492  63.2998 296.8178 15.81063664  3905
STARLINK-36823          
1 68070U 26042B   26080.20140988  .00346432  00000+0  16775-2 0  9992
2 68070  53.1572 137.0774 0001972  48.5631 311.5561 15.81025249  3902
STARLINK-36970          
1 68071U 26042C   26080.19990751  .00339490  00000+0  16457-2 0  9995
2 68071  53.1571 137.0670 0001829  44.9460 315.1710 15.81020114  3900
STARLINK-36972          
1 68072U 26042D   26080.20065847  .00376935  00000+0  18177-2 0  9993
2 68072  53.1574 137.0724 0001900  42.5940 317.5230 15.81032858  3902
STARLINK-37074          
1 68073U 26042E   26080.19915202  .00434254  00000+0  20818-2 0  9995
2 68073  53.1573 137.0623 0001374 290.6694  69.4181 15.81009656  3905
STARLINK-37045          
1 68074U 26042F   26080.08334491 -.01914824  00000+0 -13011-1 0  9994
2 68074  53.1587 137.6426 0000873  75.3626 344.4768 15.77468641  3886
STARLINK-37026          
1 68075U 26042G   26080.16667824  .00168182  00000+0  10821-2 0  9995
2 68075  53.1581 137.3337 0001392 106.1077  15.3815 15.75186840  3893
STARLINK-37023          
1 68076U 26042H   26080.08334491  .00105924  00000+0  68795-3 0  9997
2 68076  53.1588 137.6868 0000891  79.2544 318.8487 15.75191728  3881
STARLINK-37036          
1 68077U 26042J   26080.16667824  .00070804  00000+0  46254-3 0  9990
2 68077  53.1584 137.2763 0001606  87.6532  61.4112 15.75221753  3892
